[{"OBJECT_NAME":"TEVEL2-8","OBJECT_ID":"2025-052AF","EPOCH":"2026-03-09T16:02:08.542752","MEAN_MOTION":15.28392908,"ECCENTRICITY":0.0008031,"INCLINATION":97.4055,"RA_OF_ASC_NODE":324.2923,"ARG_OF_PERICENTER":124.9191,"MEAN_ANOMALY":235.2804,"EPHEMERIS_TYPE":0,"CLASSIFICATION_TYPE":"U","NORAD_CAT_ID":63239,"ELEMENT_SET_NO":999,"REV_AT_EPOCH":5480,"BSTAR":0.00069303947,"MEAN_MOTION_DOT":0.0001913,"MEAN_MOTION_DDOT":0},{"OBJECT_NAME":"STARLINK-35511","OBJECT_ID":"2025-253AB","EPOCH":"2026-03-09T11:02:20.178528","MEAN_MOTION":15.27591717,"ECCENTRICITY":0.00014518,"INCLINATION":43.0017,"RA_OF_ASC_NODE":213.4255,"ARG_OF_PERICENTER":243.6652,"MEAN_ANOMALY":116.405,"EPHEMERIS_TYPE":0,"CLASSIFICATION_TYPE":"U","NORAD_CAT_ID":66344,"ELEMENT_SET_NO":999,"REV_AT_EPOCH":2021,"BSTAR":0.0011744517,"MEAN_MOTION_DOT":0.00032209,"MEAN_MOTION_DDOT":0}]
